STARLINK-36879          
1 67982U 26038X   26079.83335647  .00085126  00000+0  15541-2 0  9993
2 67982  97.2860  90.5851 0001130  82.6185 288.1542 15.49113314  4993
STARLINK-36867          
1 67983U 26038Y   26079.83335647 -.00066569  00000+0 -12318-2 0  9995
2 67983  97.2855  90.6167 0001620  91.9050 352.8231 15.49208859  4990
STARLINK-36266          
1 67984U 26038Z   26079.83335647 -.02317491  00000+0 -28939-1 0  9996
2 67984  97.2860  90.7302 0001441  83.8270 276.7137 15.63091029  4965
STARLINK-36802          
1 67985U 26038AA  26078.99580099  .00195850  00000+0  12802-2 0  9998
2 67985  97.2877  89.8680 0001394  94.2528 265.8897 15.75259861  4810
STARLINK-36535          
1 67986U 26039A   26079.83335647 -.01894913  00000+0 -30695-1 0  9999
2 67986  42.9993 347.4034 0001249 242.7483  41.9539 15.55426912  4662
STARLINK-36744          
1 67987U 26039B   26079.75003471 -.01891339  00000+0 -28613-1 0  9994
2 67987  42.9990 347.8010 0001254 248.3390 325.7015 15.57237644  4658
STARLINK-36734          
1 67988U 26039C   26079.83335647  .00056757  00000+0  96833-3 0  9992
2 67988  42.9998 348.4491 0001732 259.5889 321.6259 15.50518951  4667
STARLINK-36957          
1 67989U 26039D   26079.83335647 -.01888835  00000+0 -30213-1 0  9994
2 67989  42.9993 347.3510 0001316 248.8157  56.1711 15.55751647  4669
STARLINK-36951          
1 67990U 26039E   26079.83335647 -.01439526  00000+0 -26453-1 0  9996
2 67990  42.9997 347.5816 0001233 262.8732 308.9547 15.51612274  4662
STARLINK-36941          
1 67991U 26039F   26079.83335647 -.00053606  00000+0 -91390-3 0  9991
2 67991  42.9999 348.4382 0001419 260.9953 323.6126 15.50587505  4667
STARLINK-36950          
1 67992U 26039G   26079.83335647  .00040221  00000+0  68962-3 0  9998
2 67992  42.9996 348.0608 0001610 250.1048 127.2722 15.50507671  4667
STARLINK-36975          
1 67993U 26039H   26079.83335647 -.00079457  00000+0 -13613-2 0  9996
2 67993  42.9996 347.9630 0001591 242.6670 173.9561 15.50599146  4663
