CCSDS_OMM_VERS = 2.0
CREATION_DATE  = 
ORIGINATOR     = 

OBJECT_NAME    = STARLINK-36879
OBJECT_ID      = 2026-038X
CENTER_NAME    = EARTH
REF_FRAME      = TEME
TIME_SYSTEM    = UTC
MEAN_ELEMENT_THEORY = SGP/SGP4

EPOCH          = 2026-03-20T20:00:01.999008
MEAN_MOTION    = 15.49113314
ECCENTRICITY   = .000113
INCLINATION    = 97.2860
RA_OF_ASC_NODE = 90.5851
ARG_OF_PERICENTER = 82.6185
MEAN_ANOMALY   = 288.1542

EPHEMERIS_TYPE = 0
CLASSIFICATION_TYPE = U
NORAD_CAT_ID   = 67982
ELEMENT_SET_NO = 999
REV_AT_EPOCH   = 499
BSTAR          = .15541E-2
MEAN_MOTION_DOT = .85126E-3
MEAN_MOTION_DDOT = 0

CCSDS_OMM_VERS = 2.0
CREATION_DATE  = 
ORIGINATOR     = 

OBJECT_NAME    = STARLINK-36867
OBJECT_ID      = 2026-038Y
CENTER_NAME    = EARTH
REF_FRAME      = TEME
TIME_SYSTEM    = UTC
MEAN_ELEMENT_THEORY = SGP/SGP4

EPOCH          = 2026-03-20T20:00:01.999008
MEAN_MOTION    = 15.49208859
ECCENTRICITY   = .000162
INCLINATION    = 97.2855
RA_OF_ASC_NODE = 90.6167
ARG_OF_PERICENTER = 91.9050
MEAN_ANOMALY   = 352.8231

EPHEMERIS_TYPE = 0
CLASSIFICATION_TYPE = U
NORAD_CAT_ID   = 67983
ELEMENT_SET_NO = 999
REV_AT_EPOCH   = 499
BSTAR          = -.12318E-2
MEAN_MOTION_DOT = -.66569E-3
MEAN_MOTION_DDOT = 0

CCSDS_OMM_VERS = 2.0
CREATION_DATE  = 
ORIGINATOR     = 

OBJECT_NAME    = STARLINK-36266
OBJECT_ID      = 2026-038Z
CENTER_NAME    = EARTH
REF_FRAME      = TEME
TIME_SYSTEM    = UTC
MEAN_ELEMENT_THEORY = SGP/SGP4

EPOCH          = 2026-03-20T20:00:01.999008
MEAN_MOTION    = 15.63091029
ECCENTRICITY   = .0001441
INCLINATION    = 97.2860
RA_OF_ASC_NODE = 90.7302
ARG_OF_PERICENTER = 83.8270
MEAN_ANOMALY   = 276.7137

EPHEMERIS_TYPE = 0
CLASSIFICATION_TYPE = U
NORAD_CAT_ID   = 67984
ELEMENT_SET_NO = 999
REV_AT_EPOCH   = 496
BSTAR          = -.28939E-1
MEAN_MOTION_DOT = -.2317491E-1
MEAN_MOTION_DDOT = 0

CCSDS_OMM_VERS = 2.0
CREATION_DATE  = 
ORIGINATOR     = 

OBJECT_NAME    = STARLINK-36802
OBJECT_ID      = 2026-038AA
CENTER_NAME    = EARTH
REF_FRAME      = TEME
TIME_SYSTEM    = UTC
MEAN_ELEMENT_THEORY = SGP/SGP4

EPOCH          = 2026-03-19T23:53:57.205536
MEAN_MOTION    = 15.75259861
ECCENTRICITY   = .00013943
INCLINATION    = 97.2877
RA_OF_ASC_NODE = 89.8680
ARG_OF_PERICENTER = 94.2528
MEAN_ANOMALY   = 265.8897

EPHEMERIS_TYPE = 0
CLASSIFICATION_TYPE = U
NORAD_CAT_ID   = 67985
ELEMENT_SET_NO = 999
REV_AT_EPOCH   = 481
BSTAR          = .12801716E-2
MEAN_MOTION_DOT = .19585E-2
MEAN_MOTION_DDOT = 0

CCSDS_OMM_VERS = 2.0
CREATION_DATE  = 
ORIGINATOR     = 

OBJECT_NAME    = STARLINK-36535
OBJECT_ID      = 2026-039A
CENTER_NAME    = EARTH
REF_FRAME      = TEME
TIME_SYSTEM    = UTC
MEAN_ELEMENT_THEORY = SGP/SGP4

EPOCH          = 2026-03-20T20:00:01.999008
MEAN_MOTION    = 15.55426912
ECCENTRICITY   = .0001249
INCLINATION    = 42.9993
RA_OF_ASC_NODE = 347.4034
ARG_OF_PERICENTER = 242.7483
MEAN_ANOMALY   = 41.9539

EPHEMERIS_TYPE = 0
CLASSIFICATION_TYPE = U
NORAD_CAT_ID   = 67986
ELEMENT_SET_NO = 999
REV_AT_EPOCH   = 466
BSTAR          = -.30695E-1
MEAN_MOTION_DOT = -.1894913E-1
MEAN_MOTION_DDOT = 0

CCSDS_OMM_VERS = 2.0
CREATION_DATE  = 
ORIGINATOR     = 

OBJECT_NAME    = STARLINK-36744
OBJECT_ID      = 2026-039B
CENTER_NAME    = EARTH
REF_FRAME      = TEME
TIME_SYSTEM    = UTC
MEAN_ELEMENT_THEORY = SGP/SGP4

EPOCH          = 2026-03-20T18:00:02.998944
MEAN_MOTION    = 15.57237644
ECCENTRICITY   = .0001254
INCLINATION    = 42.9990
RA_OF_ASC_NODE = 347.8010
ARG_OF_PERICENTER = 248.3390
MEAN_ANOMALY   = 325.7015

EPHEMERIS_TYPE = 0
CLASSIFICATION_TYPE = U
NORAD_CAT_ID   = 67987
ELEMENT_SET_NO = 999
REV_AT_EPOCH   = 465
BSTAR          = -.28613E-1
MEAN_MOTION_DOT = -.1891339E-1
MEAN_MOTION_DDOT = 0

CCSDS_OMM_VERS = 2.0
CREATION_DATE  = 
ORIGINATOR     = 

OBJECT_NAME    = STARLINK-36734
OBJECT_ID      = 2026-039C
CENTER_NAME    = EARTH
REF_FRAME      = TEME
TIME_SYSTEM    = UTC
MEAN_ELEMENT_THEORY = SGP/SGP4

EPOCH          = 2026-03-20T20:00:01.999008
MEAN_MOTION    = 15.50518951
ECCENTRICITY   = .0001732
INCLINATION    = 42.9998
RA_OF_ASC_NODE = 348.4491
ARG_OF_PERICENTER = 259.5889
MEAN_ANOMALY   = 321.6259

EPHEMERIS_TYPE = 0
CLASSIFICATION_TYPE = U
NORAD_CAT_ID   = 67988
ELEMENT_SET_NO = 999
REV_AT_EPOCH   = 466
BSTAR          = .96833E-3
MEAN_MOTION_DOT = .56757E-3
MEAN_MOTION_DDOT = 0

CCSDS_OMM_VERS = 2.0
CREATION_DATE  = 
ORIGINATOR     = 

OBJECT_NAME    = STARLINK-36957
OBJECT_ID      = 2026-039D
CENTER_NAME    = EARTH
REF_FRAME      = TEME
TIME_SYSTEM    = UTC
MEAN_ELEMENT_THEORY = SGP/SGP4

EPOCH          = 2026-03-20T20:00:01.999008
MEAN_MOTION    = 15.55751647
ECCENTRICITY   = .0001316
INCLINATION    = 42.9993
RA_OF_ASC_NODE = 347.3510
ARG_OF_PERICENTER = 248.8157
MEAN_ANOMALY   = 56.1711

EPHEMERIS_TYPE = 0
CLASSIFICATION_TYPE = U
NORAD_CAT_ID   = 67989
ELEMENT_SET_NO = 999
REV_AT_EPOCH   = 466
BSTAR          = -.30213E-1
MEAN_MOTION_DOT = -.1888835E-1
MEAN_MOTION_DDOT = 0

CCSDS_OMM_VERS = 2.0
CREATION_DATE  = 
ORIGINATOR     = 

OBJECT_NAME    = STARLINK-36951
OBJECT_ID      = 2026-039E
CENTER_NAME    = EARTH
REF_FRAME      = TEME
TIME_SYSTEM    = UTC
MEAN_ELEMENT_THEORY = SGP/SGP4

EPOCH          = 2026-03-20T20:00:01.999008
MEAN_MOTION    = 15.51612274
ECCENTRICITY   = .0001233
INCLINATION    = 42.9997
RA_OF_ASC_NODE = 347.5816
ARG_OF_PERICENTER = 262.8732
MEAN_ANOMALY   = 308.9547

EPHEMERIS_TYPE = 0
CLASSIFICATION_TYPE = U
NORAD_CAT_ID   = 67990
ELEMENT_SET_NO = 999
REV_AT_EPOCH   = 466
BSTAR          = -.26453E-1
MEAN_MOTION_DOT = -.1439526E-1
MEAN_MOTION_DDOT = 0

CCSDS_OMM_VERS = 2.0
CREATION_DATE  = 
ORIGINATOR     = 

OBJECT_NAME    = STARLINK-36941
OBJECT_ID      = 2026-039F
CENTER_NAME    = EARTH
REF_FRAME      = TEME
TIME_SYSTEM    = UTC
MEAN_ELEMENT_THEORY = SGP/SGP4

EPOCH          = 2026-03-20T20:00:01.999008
MEAN_MOTION    = 15.50587505
ECCENTRICITY   = .0001419
INCLINATION    = 42.9999
RA_OF_ASC_NODE = 348.4382
ARG_OF_PERICENTER = 260.9953
MEAN_ANOMALY   = 323.6126

EPHEMERIS_TYPE = 0
CLASSIFICATION_TYPE = U
NORAD_CAT_ID   = 67991
ELEMENT_SET_NO = 999
REV_AT_EPOCH   = 466
BSTAR          = -.9139E-3
MEAN_MOTION_DOT = -.53606E-3
MEAN_MOTION_DDOT = 0

CCSDS_OMM_VERS = 2.0
CREATION_DATE  = 
ORIGINATOR     = 

OBJECT_NAME    = STARLINK-36950
OBJECT_ID      = 2026-039G
CENTER_NAME    = EARTH
REF_FRAME      = TEME
TIME_SYSTEM    = UTC
MEAN_ELEMENT_THEORY = SGP/SGP4

EPOCH          = 2026-03-20T20:00:01.999008
MEAN_MOTION    = 15.50507671
ECCENTRICITY   = .000161
INCLINATION    = 42.9996
RA_OF_ASC_NODE = 348.0608
ARG_OF_PERICENTER = 250.1048
MEAN_ANOMALY   = 127.2722

EPHEMERIS_TYPE = 0
CLASSIFICATION_TYPE = U
NORAD_CAT_ID   = 67992
ELEMENT_SET_NO = 999
REV_AT_EPOCH   = 466
BSTAR          = .68962E-3
MEAN_MOTION_DOT = .40221E-3
MEAN_MOTION_DDOT = 0

CCSDS_OMM_VERS = 2.0
CREATION_DATE  = 
ORIGINATOR     = 

OBJECT_NAME    = STARLINK-36975
OBJECT_ID      = 2026-039H
CENTER_NAME    = EARTH
REF_FRAME      = TEME
TIME_SYSTEM    = UTC
MEAN_ELEMENT_THEORY = SGP/SGP4

EPOCH          = 2026-03-20T20:00:01.999008
MEAN_MOTION    = 15.50599146
ECCENTRICITY   = .0001591
INCLINATION    = 42.9996
RA_OF_ASC_NODE = 347.9630
ARG_OF_PERICENTER = 242.6670
MEAN_ANOMALY   = 173.9561

EPHEMERIS_TYPE = 0
CLASSIFICATION_TYPE = U
NORAD_CAT_ID   = 67993
ELEMENT_SET_NO = 999
REV_AT_EPOCH   = 466
BSTAR          = -.13613E-2
MEAN_MOTION_DOT = -.79457E-3
MEAN_MOTION_DDOT = 0

